SL-14 R/B               
1 19574U 88093B   25035.55346203  .00001056  00000+0  12051-3 0  9990
2 19574  82.5285  55.6070 0019209 275.7792 199.9858 14.85089562941934
SL-16 R/B               
1 19650U 88102B   25035.08953842 -.00000008  00000+0  20032-4 0  9993
2 19650  70.9986 270.1392 0016594 259.4440 100.4814 14.16073008870462
INTERCOSMOS 24          
1 20261U 89080A   25035.40696456  .00000964  00000+0  27661-3 0  9994
2 20261  82.6089   3.3531 1192273 136.4489 233.7262 12.58708601616670
SL-14 R/B               
1 20262U 89080C   25035.46171721  .00000651  00000+0  19179-3 0  9992
2 20262  82.5889  68.8884 1231867  14.9285 348.4965 12.50151761610389
DELTA 1 R/B             
1 20323U 89089B   25035.29654283  .00001135  00000+0  29254-3 0  9992
2 20323  97.1201 300.1399 0068240 301.3450  58.1081 14.50189891837987
ARIANE 40 R/B           
1 20443U 90005H   25035.16258497  .00000643  00000+0  22018-3 0  9992
2 20443  98.3646 101.4798 0009438 328.3993  31.6627 14.39463280835463
DELTA 2 R/B(1)          
1 20453U 90008B   25035.49334466  .00031727  00000+0  86469-3 0  9990
2 20453  35.6136 197.2762 0159129 259.6239  98.6516 15.24686897864804
COSMOS 2058             
1 20465U 90010A   25035.55732689  .00005814  00000+0  38320-3 0  9993
2 20465  82.4835  78.0967 0011299 221.4326 138.6047 15.07273519882184
SL-14 R/B               
1 20466U 90010B   25035.14737336  .00000839  00000+0  99971-4 0  9995
2 20466  82.5018 281.5382 0020089 168.8745 191.2919 14.83041611869409
SL-14 R/B               
1 20511U 90018B   25035.52648168  .00000887  00000+0  10976-3 0  9990
2 20511  82.5188 235.1114 0015677 326.2735  33.7480 14.81621436863619
HST                     
1 20580U 90037B   25035.59074375  .00009763  00000+0  39652-3 0  9991
2 20580  28.4664 222.2343 0003018  60.2093 299.8800 15.22853292712439
SL-16 R/B               
1 20625U 90046B   25035.47999302 -.00000122  00000+0 -38427-4 0  9996
2 20625  70.9989  54.1696 0014829 199.8819 160.1728 14.14935086792069
COSMOS 2084             
1 20663U 90055A   25035.55483861  .00006054  00000+0  44018-3 0  9995
2 20663  62.7897 250.2777 0081653 141.6204 219.0744 15.02206382876433
SL-6 R/B(2)             
1 20666U 90055D   25035.54437923  .00006014  00000+0  47292-3 0  9998
2 20666  62.7837 165.1975 0048458 169.0002 191.2168 15.00953479878370
SL-8 R/B                
1 20775U 90078B   25035.54664322  .00018423  00000+0  66062-3 0  9992
2 20775  82.9081 244.7836 0424113 257.4664  97.8807 14.72122367750370
SL-8 R/B                
1 21088U 91006B   25035.27777678  .00000140  00000+0  12510-3 0  9997
2 21088  82.9418 106.4419 0023825  72.7939 351.1632 13.77422389709222
OKEAN-3                 
1 21397U 91039A   25035.34550897  .00005979  00000+0  46041-3 0  9997
2 21397  82.5201   1.8168 0012932 241.7687 118.2233 15.01434447805194
COSMOS 2151             
1 21422U 91042A   25035.60052708  .00004134  00000+0  34776-3 0  9991
2 21422  82.4971 107.0032 0011589 329.4133  30.6412 14.97986545803551
SL-14 R/B               
1 21423U 91042B   25035.49858642  .00000907  00000+0  11285-3 0  9994
2 21423  82.4904 233.4560 0018500 107.8521 252.4712 14.81336266794117
ERS-1                   
1 21574U 91050A   25035.48475421  .00000854  00000+0  29006-3 0  9990
2 21574  98.7916  38.6691 0031282 304.4407  55.3824 14.39022762758454
ARIANE 40 R/B           
1 21610U 91050F   25035.57910025  .00000826  00000+0  26226-3 0  9995
2 21610  98.2594  96.5246 0003073 178.9262 181.1935 14.42442322761593
INTERCOSMOS 25          
1 21819U 91086A   25035.51244241  .00003243  00000+0  64650-3 0  9998
2 21819  82.6072 190.4565 1494281 254.3068  88.8687 12.10137375448488
SL-8 R/B                
1 21876U 92008B   25035.51443453  .00000099  00000+0  85790-4 0  9997
2 21876  82.9261 203.8620 0035102 164.9572 256.0081 13.75899691654667
SL-8 R/B                
1 21938U 92020B   25035.51791810  .00000082  00000+0  69336-4 0  9993
2 21938  82.9281  89.4903 0028278 331.7594 138.9439 13.75488330646394
USA 81                  
1 21949U 92023A   25035.37301840  .00000514  00000+0  18361-3 0  9993
2 21949  85.0101   1.2043 0001536 107.8311 252.3049 14.32156718 37775
COSMOS 2219             
1 22219U 92076A   25035.53488360 -.00000136  00000+0 -46722-4 0  9998
2 22219  71.0602 130.3367 0015644  88.5522 271.7392 14.13984453662093
SL-16 R/B               
1 22220U 92076B   25035.23015510  .00000337  00000+0  19221-3 0  9994
2 22220  71.0014 307.6691 0013669 333.0918 140.0364 14.16769439665394
COSMOS 2221             
1 22236U 92080A   25035.17318304  .00003202  00000+0  29719-3 0  9993
2 22236  82.5058 300.0974 0016636  88.7397 271.5730 14.94021105721240
SL-16 R/B               
1 22285U 92093B   25035.50195026 -.00000044  00000+0  18452-5 0  9998
2 22285  71.0217 120.1178 0005418 219.5438 140.5290 14.15358991656812
COSMOS 2228             
1 22286U 92094A   25035.49020366  .00004301  00000+0  39284-3 0  9995
2 22286  82.5162 257.8511 0018061 198.7825 161.2732 14.94710405716529
SL-16 R/B               
1 22566U 93016B   25035.22077881  .00000308  00000+0  18260-3 0  9990
2 22566  71.0091 332.0355 0011697 219.1196 140.9083 14.15225435645793
COSMOS 2242             
1 22626U 93024A   25035.18607801  .00003573  00000+0  33009-3 0  9997
2 22626  82.5190 287.1598 0015985 200.6337 159.4240 14.94246509720833
SL-16 R/B               
1 22803U 93059B   25035.52810387  .00000075  00000+0  61027-4 0  9991
2 22803  70.9907 130.7167 0014825  98.0817 262.1989 14.17136596623121
ARIANE 40 R/B           
1 22830U 93061H   25035.20297247  .00000506  00000+0  20267-3 0  9992
2 22830  98.5435 105.8262 0011091  28.7060 331.4733 14.32524172637045
COSMOS 2278             
1 23087U 94023A   25035.12312938 -.00000132  00000+0 -44587-4 0  9991
2 23087  71.0531 288.8986 0011367 275.5184  84.4642 14.14246286588454
SL-16 R/B               
1 23088U 94023B   25035.49800404 -.00000037  00000+0  54910-5 0  9997
2 23088  70.9995 187.0769 0004170 219.1384 140.9437 14.14941035589765
SL-16 R/B               
1 23343U 94074B   25035.55714789  .00001122  00000+0  15939-3 0  9995
2 23343  97.7584  76.5757 0008080  79.5501  53.8152 14.78783681628392
SL-16 R/B               
1 23405U 94077B   25035.49346222 -.00000109  00000+0 -31077-4 0  9991
2 23405  70.9832 110.1726 0001870 343.1519  16.9541 14.15488091559887
ARIANE 40+ R/B          
1 23561U 95021B   25035.19769660  .00000666  00000+0  22848-3 0  9997
2 23561  98.4998 106.0064 0005800 251.5271 119.0424 14.39356735561918
SL-16 R/B               
1 23705U 95058B   25035.12740709  .00000160  00000+0  10653-3 0  9993
2 23705  71.0214 296.9870 0012381 357.0530   3.0518 14.15419462511453
SL-16 R/B               
1 24298U 96051B   25035.15781408 -.00000177  00000+0 -69246-4 0  9992
2 24298  70.7799 298.5310 0016315 354.4170   5.6765 14.12440568465373
ORBVIEW 2 (SEASTAR)     
1 24883U 97037A   25035.36600068  .00000873  00000+0  32212-3 0  9995
2 24883  98.8034 185.3665 0002795 137.3293 222.8109 14.35067474451335
SL-16 R/B               
1 25400U 98043G   25035.46702709  .00000235  00000+0  11738-3 0  9997
2 25400  98.7730 342.3049 0010988  89.9040 270.3399 14.25915133382233
SL-16 R/B               
1 25407U 98045B   25035.19184381  .00000389  00000+0  22088-3 0  9996
2 25407  71.0118 299.5566 0009717 271.6863  88.3147 14.16106542370682
ISS (ZARYA)             
1 25544U 98067A   25035.62619039  .00014709  00000+0  26709-3 0  9998
2 25544  51.6374 243.6061 0003513 275.7741 124.9443 15.49797991494606
CZ-4B R/B               
1 25732U 99025C   25035.63624731  .00000201  00000+0  11831-3 0  9990
2 25732  98.7207  83.1066 0037949  50.0767 118.1752 14.18134660331742
OKEAN-O                 
1 25860U 99039A   25035.14434843  .00001462  00000+0  20298-3 0  9993
2 25860  98.0041  92.8566 0001321 114.4948 245.6401 14.79426839375447
SL-16 R/B               
1 25861U 99039B   25035.58497495  .00001412  00000+0  18909-3 0  9995
2 25861  98.0570  88.9916 0016243 106.4771 253.8227 14.80962022377927
DELTA 2 R/B             
1 25876U 99041E   25035.51595326  .00004577  00000+0  78132-3 0  9998
2 25876  51.7647  89.5828 0509311 254.7138  99.6967 14.10065009306819
HELIOS 1B               
1 25977U 99064A   25035.62607428  .00002966  00000+0  34747-3 0  9998
2 25977  98.2135 280.8277 0000404  37.0701 323.0541 14.85827611626117
TERRA                   
1 25994U 99068A   25035.62533808  .00001131  00000+0  24261-3 0  9994
2 25994  98.0179  97.9965 0002489  27.8104 134.1918 14.60445872336960
SL-16 R/B               
1 26070U 00006B   25035.52826796  .00000389  00000+0  22219-3 0  9999
2 26070  71.0000 214.9789 0014528  64.8972 295.3657 14.15740249292200
TITAN 4B R/B            
1 26474U 00047B   25035.52643511  .00005629  00000+0  39036-3 0  9991
2 26474  67.9908  76.8889 0040661 132.0029 228.4593 15.05659615332895
ENVISAT                 
1 27386U 02009A   25035.53113154  .00000385  00000+0  13909-3 0  9995
2 27386  98.3169 354.9837 0001287  91.5566  25.5225 14.38832885201917
IDEFIX & ARIANE 42P R/B 
1 27422U 02021B   25035.39091465  .00000816  00000+0  32880-3 0  9992
2 27422  98.5505 334.7520 0010744 282.4517  77.5464 14.30622869187066
AQUA                    
1 27424U 02022A   25035.55527715  .00002636  00000+0  54975-3 0  9996
2 27424  98.3616 352.4097 0002259  87.7883 330.8983 14.60791548210588
CZ-4B R/B               
1 27432U 02024C   25035.56845274  .00000118  00000+0  83604-4 0  9996
2 27432  98.9446  84.6506 0051157  73.1571  95.9991 14.14443922172952
MIDORI II (ADEOS-II)    
1 27597U 02056A   25035.49407308  .00000898  00000+0  37389-3 0  9990
2 27597  98.7223 347.6465 0002150  82.7776 277.3650 14.28858408153426
H-2A R/B                
1 27601U 02056E   25035.52727993  .00000850  00000+0  31524-3 0  9998
2 27601  98.2626   7.5274 0069382 268.6403 199.6557 14.33333644157068
